K08AB8Q  6.2   0.15 K07CQ 359.96413  177.16516  312.57504   23.48113  0.1488954  0.00321893  45.4284779  E MPO147445     4   1    1 days 0.04         MPC        2010          2008 AQ118         20080107
K08AC9P  5.3   0.15 K1014  39.35203   56.80809   14.81327   27.42024  0.1381224  0.00366497  41.6635349  3 MPO163840    24   5 1989-2009 0.39 M-v 38h MPC        1010          2008 AP129         20090128
K08CJ0S  6.4   0.15 K1014  22.23061  152.81857  326.65477   15.95254  0.1530465  0.00360983  42.0867224  6 MPO156128    21   2 2008-2009 0.52 M-v 38h MPC        000F          2008 CS190         20090324
K08CJ0T  5.5   0.15 K1014 358.45495   47.03059  103.70943   38.89544  0.3387983  0.00259296  52.4733971  5 MPO156128    24   2 2008-2009 0.38 M-v 38h MPC        0011          2008 CT190         20090325
K08F76C  9.1   0.15 K1014 333.68474  141.41883  245.66463   27.10866  0.3110238  0.01732829  14.7899113  2 MPO170198    94   2 2008-2009 0.42 M-v 38h MPC        000A          2008 FC76          20091228
K08H21Y 12.1   0.15 K1014  20.74372  164.47002   53.33482   11.99127  0.5075298  0.02708385  10.9815195  2 MPO158607    62   2 2007-2008 0.43 M-v 38h MPC        0000          2008 HY21          20080611
K08H67G 13.9   0.15 K1014 337.83928  242.50155   53.77275   42.49322  0.0380524  0.08294250   5.2073642  2 MPO140608    31   3 2001-2008 0.38 M-v 38h MPC        0009          2008 HG67          20080612
K08K42V  8.8   0.15 K1014 325.74825  132.66380  260.94417  103.41387  0.4937190  0.00364541  41.8124143  4 MPO159546    27   2 2008-2009 0.18 M-v 38h MPC        000A          2008 KV42          20090622
K08L17P  6.6   0.15 K1014 358.69714  162.15680   72.48889   14.10313  0.6596846  0.00119301  88.0453991  5 MPO164335    19   2 2008-2009 0.22 M-v 38h MPC        0011          2008 LP17          20090430
K08N04W  6.0   0.15 K1014 345.57598   46.55671  285.09277   23.12093  0.2025522  0.00320222  45.5863840  5 MPO163861    17   2 2008-2009 0.23 M-v 38h MPC        0010          2008 NW4           20090727
K08O19G  4.9   0.15 K1014 357.14308  141.70098  164.16016   13.12969  0.4277666  0.00178230  67.3723470  6 MPO164335    21   2 2008-2009 0.30 M-v 38h MPC        0011          2008 OG19          20090820
K08Q04D 11.2   0.15 K1014 350.61019   68.84594  344.68218   42.01837  0.3546361  0.04026588   8.4303304  2 MPO170203    99   2 2008-2009 0.36 M-v 38h MPC        0000          2008 QD4           20091228
K08Q40Y  5.3   0.15 K1014 349.86374  332.91498   43.23619   25.14228  0.4184244  0.00196682  63.0898198  5 MPO163862    19   2 2008-2009 0.27 M-v 38h MPC        0011          2008 QY40          20091012
K08Q43B  5.6   0.15 K1014 311.47263  104.88979  320.47836   26.34786  0.2191542  0.00345115  43.3670951  4 MPO163862    14   3 1999-2009 0.57 M-v 38h MPC        0010          2008 QB43          20090704
K08SN6J 12.2   0.15 K1014   1.49094  183.02521  234.54629    6.04361  0.4383616  0.02714773  10.9642861  1 MPO167711    80   3 2007-2009 0.33 M-v 38h MPC        000A          2008 SJ236         20091211
K08SQ6O  6.9   0.15 K1014  28.44021  173.11448  158.69429   18.77594  0.2472105  0.00394840  39.6450283  5 MPO164338    14   2 2008-2009 0.33 M-v 38h MPC        000E          2008 SO266         20091018
K08SQ6P  5.7   0.15 K1014 353.80521  233.11102  141.13097   19.48121  0.1236716  0.00372485  41.2157657  6 MPO163868    15   2 2008-2009 0.24 M-v 38h MPC        0010          2008 SP266         20091018
K08ST1T  4.4   0.15 K1014  17.94385  324.47338  330.96306   20.74398  0.6066176  0.00090024 106.2258814  5 MPO165620    21   2 2008-2009 0.32 M-v 38h MPC        000A          2008 ST291         20091018
K08U06Z 10.7   0.15 K1014 356.51070  199.60968  240.63276   35.83132  0.6135127  0.00689203  27.3466700  2 MPO167722    68   2 2008-2009 0.41 M-v 38h MPC        000A          2008 UZ6           20091211
K08UX1Z  9.4   0.15 K08AL 359.93717  284.79329   74.63424   32.63389  0.0354378  0.01252519  18.3631182  E MPO149145     3   1    1 days 0.07         MPC        200A          2008 UZ331         20081027
K08UX2A  5.2   0.15 K08BA   0.04932  287.45030   97.50974   32.10959  0.0150827  0.00328379  44.8283493  E MPO152521     6   1   57 days 0.46         MPC        2010          2008 UA332         20081222
K08UX2B  6.9   0.15 K08AL 359.97968  284.86610  110.94309   33.30805  0.2433014  0.00397016  39.5000139  E MPO149145     3   1    1 days 0.46         MPC        200E          2008 UB332         20081027
K08Y03B  9.4   0.15 K1014 349.54903  330.53378  112.46762  105.05667  0.4433538  0.02478017  11.6519821  1 E2010-B68    84   2 2008-2010 0.32 M-v 38h MPC        000A          2008 YB3           20100130
K09H36H 10.7   0.15 K1014 331.00293  239.87109   72.23462   23.27865  0.4464149  0.02166775  12.7426619  4 MPO159818    80   1  120 days 0.36 M-v 38h MPC        000A          2009 HH36          20090729
K09H77W  9.7   0.15 K1014  10.61210  140.78584   50.42535   17.88362  0.4188788  0.00991596  21.4575220  4 MPO166339    29   2 2008-2009 0.42 M-v 38h MPC        000A          2009 HW77          20090525
K09K30J  8.3   0.15 K0959 359.94941  354.63445  253.27692   30.54472  0.1890551  0.00310291  46.5539250  E MPO159820    17   1    2 days 0.09         MPC        2010          2009 KJ30          20090527
K09K30K  7.2   0.15 K0978  54.28523  267.35611  259.83580   14.17555  0.2494562  0.00237629  55.6165013    MPO160910    25   1   89 days 0.07         MPC        0010          2009 KK30          20090822
K09K30L  7.6   0.15 K096I 178.01630  174.46086  255.45101   23.18657  0.1934427  0.00320069  45.6009394  E MPO160910    27   1   53 days 0.11         MPC        2010          2009 KL30          20090717
K09K30M  9.0   0.15 K096I   0.08674  224.67680   24.41611    3.84073  0.0064994  0.00365759  41.7195134  E MPO160910    26   1   53 days 0.14         MPC        2010          2009 KM30          20090717
K09K30N  8.0   0.15 K0978   3.65698  309.08696  284.80880    4.60790  0.5581223  0.00170749  69.3260985    MPO160910    30   1   89 days 0.08         MPC        0011          2009 KN30          20090822
K09K30O  8.8   0.15 K0978 218.01248  341.98634   53.94552    9.37017  0.0682277  0.00332782  44.4320319  E MPO160910    27   1   89 days 0.13         MPC        0010          2009 KO30          20090822
K09M09S 10.5   0.15 K1014 359.86653  128.46446  220.24381   67.99650  0.9732377  0.00011807 411.5005248    MPO164342    37   1  109 days 0.13 M-v 38h MPC        0011          2009 MS9           20091012
K09M10A  9.4   0.15 K096I 359.98959   79.82743  194.72826    2.23408  0.0510271  0.00333288  44.3870832  E MPO170263     4   1    1 days 0.14         MPC        2010          2009 MA10          20090622
K09Q38V 11.9   0.15 K1014 358.37495   13.30358   11.62515   19.88544  0.4507184  0.02726559  10.9326675  3 MPO170265    98   1  122 days 0.40 M-v 38h MPC        000A          2009 QV38          20091228
K09Y07D 10.0   0.15 K09BP 359.03601  327.02567  126.05891   30.79195  0.8995254  0.00064395 132.8115661    MPO170302    15   1   54 days 0.28         MPC        0011          2009 YD7           20100106
K09Y07E  4.1   0.15 K09CF 207.60855   87.02170  132.77329   29.71494  0.3309290  0.00394194  39.6883352  E MPO170302    11   1   24 days 0.38         MPC        000E          2009 YE7           20100106
K09Y07F 10.7   0.15 K09CF 113.36216  177.11070   93.30675   34.18463  0.4427327  0.02975843  10.3132623  E MPO170302    15   1   18 days 0.58         MPC        0000          2009 YF7           20100106
K09Y19G  6.0   0.15 K09CF 359.98257  318.75712  101.86454    4.87399  0.5138335  0.00176881  67.7144493  E MPO170303    12   1   12 days 0.40         MPC        0011          2009 YG19          20100106
K10A02H  5.6   0.15 K1014 359.99322  357.07890  127.86491   16.59473  0.1364452  0.00324949  45.1432471  E MPO170305     9   1    2 days 0.20         MPC        0010          2010 AH2           20100108
K10B04L 11.3   0.15 K1014 294.60952  320.08904  236.64743   21.97492  0.0240043  0.03069951  10.1014045  E MPO170312     7   1    3 days 0.19         MPC        000A          2010 BL4           20100121
K2421    3.4   0.15 K1014 216.77040  221.33012  307.61646   25.69365  0.1424402  0.00343701  43.4859624  3 MPO148340    51   9 1990-2008 0.32 M-v 38h MPC        0010 (202421) 2005 UQ513         20081129
K8996    3.6   0.15 K1014 218.15833   15.86540  252.05183   13.57222  0.1805312  0.00398908  39.3750356  3 MPO152885    64   7 1996-2009 0.34 M-v 38h MPC        000E (208996) 2003 AZ84          20090218
M5088    1.9   0.15 K1014  99.78982  207.42642  336.86982   30.67198  0.4999336  0.00178336  67.3456036  4 MPO163548    38   7 1985-2009 0.36 M-v 38h MPC        0011 (225088) 2007 OR10          20091019
M9762    3.4   0.15 K1014 339.35061  346.20614  131.06638   23.36920  0.4883031  0.00156329  73.5264263  2 MPO166896    55   9 1982-2009 0.26 M-v 38h MPC        0011 (229762) 2007 UK126         20091220
N0965    4.0   0.15 K1014 350.11462  131.96209  328.55546   38.14602  0.2463789  0.00305070  47.0835678  3 MPO168133    28   5 1989-2010 0.71 M-v 38h MPC        0010 (230965) 2004 XA192         20100126
